[
    {
        "Altitude(m)": 612513.9133955007,
        "Argument of Periapsis(deg)": 0.0,
        "Eccentricity": 0.0,
        "Inclination(deg)": 60.0,
        "Latitude(deg)": -28.13590432557907,
        "Longitude(deg)": 32.91316748023864,
        "Mean Anomaly(deg)": -147.2727,
        "RAAN(deg)": 295.00000000000006,
        "Satellite Name": "Test1 1311",
        "Satellite Number": 1311,
        "Semi-Major Axis(m)": 6980739.136638005,
        "Time(s)": 0
    },
    {
        "Altitude(m)": 612708.2809619891,
        "Argument of Periapsis(deg)": 0.00010418945913296404,
        "Eccentricity": 0.0,
        "Inclination(deg)": 60.0,
        "Latitude(deg)": -28.647642872163782,
        "Longitude(deg)": 33.27039879195092,
        "Mean Anomaly(deg)": -146.65259385453814,
        "RAAN(deg)": 294.99957995086027,
        "Satellite Name": "Test1 1311",
        "Satellite Number": 1311,
        "Semi-Major Axis(m)": 6980739.136638005,
        "Time(s)": 10
    }
]